[{"OBJECT_NAME":"KL-BETA A","OBJECT_ID":"2021-070A","EPOCH":"2026-03-09T23:16:25.352832","MEAN_MOTION":13.94374423,"ECCENTRICITY":0.00022434,"INCLINATION":88.9968,"RA_OF_ASC_NODE":229.3018,"ARG_OF_PERICENTER":49.4969,"MEAN_ANOMALY":310.6402,"EPHEMERIS_TYPE":0,"CLASSIFICATION_TYPE":"U","NORAD_CAT_ID":49059,"ELEMENT_SET_NO":999,"REV_AT_EPOCH":23410,"BSTAR":-1.8977282e-5,"MEAN_MOTION_DOT":-1.2e-7,"MEAN_MOTION_DDOT":0},{"OBJECT_NAME":"FENGYUN 1C DEB","OBJECT_ID":"1999-025CQF","EPOCH":"2026-03-09T05:44:58.473024","MEAN_MOTION":14.14331524,"ECCENTRICITY":0.0110436,"INCLINATION":98.6566,"RA_OF_ASC_NODE":76.135,"ARG_OF_PERICENTER":236.5241,"MEAN_ANOMALY":122.5338,"EPHEMERIS_TYPE":0,"CLASSIFICATION_TYPE":"U","NORAD_CAT_ID":32089,"ELEMENT_SET_NO":999,"REV_AT_EPOCH":64438,"BSTAR":0.00066316975,"MEAN_MOTION_DOT":1.301e-5,"MEAN_MOTION_DDOT":0}]
